SEEDS II (CO-66)        
1 32791U 08021J   26068.92109284  .00023758  00000+0  84213-3 0  9995
2 32791  97.7519  62.3611 0001448 359.2618   0.8619 15.29097235972108
STARLINK-30089          
1 56296U 23056L   26068.34242496  .00109192  00000+0  39504-2 0  9994
2 56296  42.9999 171.0972 0001478 246.7575 113.3121 15.27318984160440
